ONEWEB-0418             
1 50493U 21132AA  25352.29884958  .00000047  00000+0  87718-4 0  9995
2 50493  87.9178  11.3758 0001612 109.3558 250.7749 13.18686819197821
ONEWEB-0419             
1 50494U 21132AB  25352.31713569 -.00000025  00000+0 -96875-4 0  9990
2 50494  87.9179  11.3722 0001454  97.4858 262.6439 13.18686509197743
ONEWEB-0420             
1 50495U 21132AC  25352.13073801  .00000067  00000+0  13761-3 0  9995
2 50495  87.9181  11.4211 0001881  88.0720 272.0627 13.18685636197710
ONEWEB-0421             
1 50496U 21132AD  25352.12414610  .00000059  00000+0  11668-3 0  9997
2 50496  87.9177  11.4152 0002090  96.7053 263.4317 13.18685667197756
ONEWEB-0424             
1 50497U 21132AE  25352.16043464  .00000158  00000+0  36783-3 0  9992
2 50497  87.9176  11.4033 0001413  92.1720 267.9574 13.18687596197783
ONEWEB-0426             
1 50498U 21132AF  25352.12083709  .00000081  00000+0  17377-3 0  9998
2 50498  87.9177  11.4028 0002215 109.2155 250.9217 13.18687158197726
ONEWEB-0427             
1 50499U 21132AG  25352.31054189  .00000014  00000+0  27018-5 0  9991
2 50499  87.9178  11.3528 0001689 100.4348 259.6975 13.18685511197776
ONEWEB-0429             
1 50500U 21132AH  25352.29734200 -.00000030  00000+0 -10910-3 0  9991
2 50500  87.9177  11.3873 0001812  87.9928 272.1411 13.18686456197743
ONEWEB-0430             
1 50501U 21132AJ  25352.28578815  .00000093  00000+0  20261-3 0  9996
2 50501  87.9181  11.3854 0001614  86.2579 273.8738 13.18687753197787
ONEWEB-0432             
1 50502U 21132AK  25352.31775316  .00000122  00000+0  27614-3 0  9998
2 50502  87.9174  11.3505 0001139 119.2050 240.9197 13.18677840197742
ONEWEB-0440             
1 50503U 21132AL  25352.30559193  .00000086  00000+0  18493-3 0  9995
2 50503  87.9177  11.3712 0002196  89.5391 270.5993 13.18687434197739
ONEWEB-0450             
1 50504U 21132AM  25352.29912775  .00000043  00000+0  76787-4 0  9997
2 50504  87.9172  11.3942 0001819  83.7476 276.3863 13.18684903197762
ONEWEB-0410             
1 51622U 22012A   25352.18545775 -.00000054  00000+0 -17303-3 0  9999
2 51622  87.9116  41.8328 0002356 136.9762 223.1554 13.17647887189862
ONEWEB-0411             
1 51623U 22012B   25352.27480168 -.00000016  00000+0 -81625-4 0  9991
2 51623  87.8810  72.3321 0001259  92.0494 268.0777 13.10375277185595
ONEWEB-0415             
1 51624U 22012C   25352.27148649 -.00000245  00000+0 -73907-3 0  9994
2 51624  87.8809  72.3345 0001399 100.7423 259.3862 13.10375519185591
ONEWEB-0416             
1 51625U 22012D   25352.28310323  .00000393  00000+0  10884-2 0  9992
2 51625  87.8808  72.3532 0001282 111.9053 248.2210 13.10374685185635
ONEWEB-0422             
1 51626U 22012E   25352.11965051  .00000045  00000+0  82643-4 0  9997
2 51626  87.9114  41.8495 0002225  84.0006 276.1380 13.17648315189961
