[{"OBJECT_NAME":"ONEWEB-0418","OBJECT_ID":"2021-132AA","EPOCH":"2025-12-18T07:10:20.603712","MEAN_MOTION":13.18686819,"ECCENTRICITY":0.00016122,"INCLINATION":87.9178,"RA_OF_ASC_NODE":11.3758,"ARG_OF_PERICENTER":109.3558,"MEAN_ANOMALY":250.7749,"EPHEMERIS_TYPE":0,"CLASSIFICATION_TYPE":"U","NORAD_CAT_ID":50493,"ELEMENT_SET_NO":999,"REV_AT_EPOCH":19782,"BSTAR":8.7718133e-5,"MEAN_MOTION_DOT":4.7e-7,"MEAN_MOTION_DDOT":0},{"OBJECT_NAME":"ONEWEB-0419","OBJECT_ID":"2021-132AB","EPOCH":"2025-12-18T07:36:40.523616","MEAN_MOTION":13.18686509,"ECCENTRICITY":0.00014546,"INCLINATION":87.9179,"RA_OF_ASC_NODE":11.3722,"ARG_OF_PERICENTER":97.4858,"MEAN_ANOMALY":262.6439,"EPHEMERIS_TYPE":0,"CLASSIFICATION_TYPE":"U","NORAD_CAT_ID":50494,"ELEMENT_SET_NO":999,"REV_AT_EPOCH":19774,"BSTAR":-9.6875194e-5,"MEAN_MOTION_DOT":-2.5e-7,"MEAN_MOTION_DDOT":0},{"OBJECT_NAME":"ONEWEB-0420","OBJECT_ID":"2021-132AC","EPOCH":"2025-12-18T03:08:15.764064","MEAN_MOTION":13.18685636,"ECCENTRICITY":0.00018816,"INCLINATION":87.9181,"RA_OF_ASC_NODE":11.4211,"ARG_OF_PERICENTER":88.072,"MEAN_ANOMALY":272.0627,"EPHEMERIS_TYPE":0,"CLASSIFICATION_TYPE":"U","NORAD_CAT_ID":50495,"ELEMENT_SET_NO":999,"REV_AT_EPOCH":19771,"BSTAR":0.00013761264,"MEAN_MOTION_DOT":6.7e-7,"MEAN_MOTION_DDOT":0},{"OBJECT_NAME":"ONEWEB-0421","OBJECT_ID":"2021-132AD","EPOCH":"2025-12-18T02:58:46.223040","MEAN_MOTION":13.18685667,"ECCENTRICITY":0.00020901,"INCLINATION":87.9177,"RA_OF_ASC_NODE":11.4152,"ARG_OF_PERICENTER":96.7053,"MEAN_ANOMALY":263.4317,"EPHEMERIS_TYPE":0,"CLASSIFICATION_TYPE":"U","NORAD_CAT_ID":50496,"ELEMENT_SET_NO":999,"REV_AT_EPOCH":19775,"BSTAR":0.0001166787,"MEAN_MOTION_DOT":5.9e-7,"MEAN_MOTION_DDOT":0},{"OBJECT_NAME":"ONEWEB-0424","OBJECT_ID":"2021-132AE","EPOCH":"2025-12-18T03:51:01.552896","MEAN_MOTION":13.18687596,"ECCENTRICITY":0.00014134,"INCLINATION":87.9176,"RA_OF_ASC_NODE":11.4033,"ARG_OF_PERICENTER":92.172,"MEAN_ANOMALY":267.9574,"EPHEMERIS_TYPE":0,"CLASSIFICATION_TYPE":"U","NORAD_CAT_ID":50497,"ELEMENT_SET_NO":999,"REV_AT_EPOCH":19778,"BSTAR":0.00036782821,"MEAN_MOTION_DOT":1.58e-6,"MEAN_MOTION_DDOT":0},{"OBJECT_NAME":"ONEWEB-0426","OBJECT_ID":"2021-132AF","EPOCH":"2025-12-18T02:54:00.324576","MEAN_MOTION":13.18687158,"ECCENTRICITY":0.00022156,"INCLINATION":87.9177,"RA_OF_ASC_NODE":11.4028,"ARG_OF_PERICENTER":109.2155,"MEAN_ANOMALY":250.9217,"EPHEMERIS_TYPE":0,"CLASSIFICATION_TYPE":"U","NORAD_CAT_ID":50498,"ELEMENT_SET_NO":999,"REV_AT_EPOCH":19772,"BSTAR":0.00017376611,"MEAN_MOTION_DOT":8.1e-7,"MEAN_MOTION_DDOT":0},{"OBJECT_NAME":"ONEWEB-0427","OBJECT_ID":"2021-132AG","EPOCH":"2025-12-18T07:27:10.819296","MEAN_MOTION":13.18685511,"ECCENTRICITY":0.00016896,"INCLINATION":87.9178,"RA_OF_ASC_NODE":11.3528,"ARG_OF_PERICENTER":100.4348,"MEAN_ANOMALY":259.6975,"EPHEMERIS_TYPE":0,"CLASSIFICATION_TYPE":"U","NORAD_CAT_ID":50499,"ELEMENT_SET_NO":999,"REV_AT_EPOCH":19777,"BSTAR":2.701836e-6,"MEAN_MOTION_DOT":1.4e-7,"MEAN_MOTION_DDOT":0},{"OBJECT_NAME":"ONEWEB-0429","OBJECT_ID":"2021-132AH","EPOCH":"2025-12-18T07:08:10.348800","MEAN_MOTION":13.18686456,"ECCENTRICITY":0.00018127,"INCLINATION":87.9177,"RA_OF_ASC_NODE":11.3873,"ARG_OF_PERICENTER":87.9928,"MEAN_ANOMALY":272.1411,"EPHEMERIS_TYPE":0,"CLASSIFICATION_TYPE":"U","NORAD_CAT_ID":50500,"ELEMENT_SET_NO":999,"REV_AT_EPOCH":19774,"BSTAR":-0.00010909649,"MEAN_MOTION_DOT":-3.0e-7,"MEAN_MOTION_DDOT":0},{"OBJECT_NAME":"ONEWEB-0430","OBJECT_ID":"2021-132AJ","EPOCH":"2025-12-18T06:51:32.096160","MEAN_MOTION":13.18687753,"ECCENTRICITY":0.00016141,"INCLINATION":87.9181,"RA_OF_ASC_NODE":11.3854,"ARG_OF_PERICENTER":86.2579,"MEAN_ANOMALY":273.8738,"EPHEMERIS_TYPE":0,"CLASSIFICATION_TYPE":"U","NORAD_CAT_ID":50501,"ELEMENT_SET_NO":999,"REV_AT_EPOCH":19778,"BSTAR":0.00020260695,"MEAN_MOTION_DOT":9.3e-7,"MEAN_MOTION_DDOT":0},{"OBJECT_NAME":"ONEWEB-0432","OBJECT_ID":"2021-132AK","EPOCH":"2025-12-18T07:37:33.873024","MEAN_MOTION":13.1867784,"ECCENTRICITY":0.0001139,"INCLINATION":87.9174,"RA_OF_ASC_NODE":11.3505,"ARG_OF_PERICENTER":119.205,"MEAN_ANOMALY":240.9197,"EPHEMERIS_TYPE":0,"CLASSIFICATION_TYPE":"U","NORAD_CAT_ID":50502,"ELEMENT_SET_NO":999,"REV_AT_EPOCH":19774,"BSTAR":0.00027614184,"MEAN_MOTION_DOT":1.22e-6,"MEAN_MOTION_DDOT":0},{"OBJECT_NAME":"ONEWEB-0440","OBJECT_ID":"2021-132AL","EPOCH":"2025-12-18T07:20:03.142752","MEAN_MOTION":13.18687434,"ECCENTRICITY":0.0002196,"INCLINATION":87.9177,"RA_OF_ASC_NODE":11.3712,"ARG_OF_PERICENTER":89.5391,"MEAN_ANOMALY":270.5993,"EPHEMERIS_TYPE":0,"CLASSIFICATION_TYPE":"U","NORAD_CAT_ID":50503,"ELEMENT_SET_NO":999,"REV_AT_EPOCH":19773,"BSTAR":0.00018493355,"MEAN_MOTION_DOT":8.6e-7,"MEAN_MOTION_DDOT":0},{"OBJECT_NAME":"ONEWEB-0450","OBJECT_ID":"2021-132AM","EPOCH":"2025-12-18T07:10:44.637600","MEAN_MOTION":13.18684903,"ECCENTRICITY":0.00018191,"INCLINATION":87.9172,"RA_OF_ASC_NODE":11.3942,"ARG_OF_PERICENTER":83.7476,"MEAN_ANOMALY":276.3863,"EPHEMERIS_TYPE":0,"CLASSIFICATION_TYPE":"U","NORAD_CAT_ID":50504,"ELEMENT_SET_NO":999,"REV_AT_EPOCH":19776,"BSTAR":7.6786963e-5,"MEAN_MOTION_DOT":4.3e-7,"MEAN_MOTION_DDOT":0},{"OBJECT_NAME":"ONEWEB-0410","OBJECT_ID":"2022-012A","EPOCH":"2025-12-18T04:27:03.549600","MEAN_MOTION":13.17647887,"ECCENTRICITY":0.00023567,"INCLINATION":87.9116,"RA_OF_ASC_NODE":41.8328,"ARG_OF_PERICENTER":136.9762,"MEAN_ANOMALY":223.1554,"EPHEMERIS_TYPE":0,"CLASSIFICATION_TYPE":"U","NORAD_CAT_ID":51622,"ELEMENT_SET_NO":999,"REV_AT_EPOCH":18986,"BSTAR":-0.00017303377,"MEAN_MOTION_DOT":-5.4e-7,"MEAN_MOTION_DDOT":0},{"OBJECT_NAME":"ONEWEB-0411","OBJECT_ID":"2022-012B","EPOCH":"2025-12-18T06:35:42.865152","MEAN_MOTION":13.10375277,"ECCENTRICITY":0.00012591,"INCLINATION":87.881,"RA_OF_ASC_NODE":72.3321,"ARG_OF_PERICENTER":92.0494,"MEAN_ANOMALY":268.0777,"EPHEMERIS_TYPE":0,"CLASSIFICATION_TYPE":"U","NORAD_CAT_ID":51623,"ELEMENT_SET_NO":999,"REV_AT_EPOCH":18559,"BSTAR":-8.1624605e-5,"MEAN_MOTION_DOT":-1.6e-7,"MEAN_MOTION_DDOT":0},{"OBJECT_NAME":"ONEWEB-0415","OBJECT_ID":"2022-012C","EPOCH":"2025-12-18T06:30:56.432736","MEAN_MOTION":13.10375519,"ECCENTRICITY":0.00013999,"INCLINATION":87.8809,"RA_OF_ASC_NODE":72.3345,"ARG_OF_PERICENTER":100.7423,"MEAN_ANOMALY":259.3862,"EPHEMERIS_TYPE":0,"CLASSIFICATION_TYPE":"U","NORAD_CAT_ID":51624,"ELEMENT_SET_NO":999,"REV_AT_EPOCH":18559,"BSTAR":-0.00073907039,"MEAN_MOTION_DOT":-2.45e-6,"MEAN_MOTION_DDOT":0},{"OBJECT_NAME":"ONEWEB-0416","OBJECT_ID":"2022-012D","EPOCH":"2025-12-18T06:47:40.119072","MEAN_MOTION":13.10374685,"ECCENTRICITY":0.00012826,"INCLINATION":87.8808,"RA_OF_ASC_NODE":72.3532,"ARG_OF_PERICENTER":111.9053,"MEAN_ANOMALY":248.221,"EPHEMERIS_TYPE":0,"CLASSIFICATION_TYPE":"U","NORAD_CAT_ID":51625,"ELEMENT_SET_NO":999,"REV_AT_EPOCH":18563,"BSTAR":0.0010883791,"MEAN_MOTION_DOT":3.93e-6,"MEAN_MOTION_DDOT":0},{"OBJECT_NAME":"ONEWEB-0422","OBJECT_ID":"2022-012E","EPOCH":"2025-12-18T02:52:17.804064","MEAN_MOTION":13.17648315,"ECCENTRICITY":0.00022258,"INCLINATION":87.9114,"RA_OF_ASC_NODE":41.8495,"ARG_OF_PERICENTER":84.0006,"MEAN_ANOMALY":276.138,"EPHEMERIS_TYPE":0,"CLASSIFICATION_TYPE":"U","NORAD_CAT_ID":51626,"ELEMENT_SET_NO":999,"REV_AT_EPOCH":18996,"BSTAR":8.264321e-5,"MEAN_MOTION_DOT":4.5e-7,"MEAN_MOTION_DDOT":0}]
